[{"OBJECT_NAME":"YAOGAN-30 05A","OBJECT_ID":"2018-011B","EPOCH":"2026-03-09T23:00:41.042304","MEAN_MOTION":15.02108706,"ECCENTRICITY":0.00040081,"INCLINATION":34.9973,"RA_OF_ASC_NODE":35.5053,"ARG_OF_PERICENTER":199.9129,"MEAN_ANOMALY":160.1423,"EPHEMERIS_TYPE":0,"CLASSIFICATION_TYPE":"U","NORAD_CAT_ID":43170,"ELEMENT_SET_NO":999,"REV_AT_EPOCH":44321,"BSTAR":0.00032465095,"MEAN_MOTION_DOT":4.327e-5,"MEAN_MOTION_DDOT":0},{"OBJECT_NAME":"OBJECT A","OBJECT_ID":"2025-292A","EPOCH":"2026-03-09T21:45:44.016480","MEAN_MOTION":15.05451809,"ECCENTRICITY":0.00146319,"INCLINATION":97.6364,"RA_OF_ASC_NODE":145.598,"ARG_OF_PERICENTER":341.1551,"MEAN_ANOMALY":18.9132,"EPHEMERIS_TYPE":0,"CLASSIFICATION_TYPE":"U","NORAD_CAT_ID":66993,"ELEMENT_SET_NO":999,"REV_AT_EPOCH":1350,"BSTAR":0.00038878249,"MEAN_MOTION_DOT":5.535e-5,"MEAN_MOTION_DDOT":0}]
